[{"OBJECT_NAME":"STARLINK-30998","OBJECT_ID":"2023-191F","EPOCH":"2026-03-09T10:56:11.755104","MEAN_MOTION":15.26777394,"ECCENTRICITY":0.00010836,"INCLINATION":43.0003,"RA_OF_ASC_NODE":104.9154,"ARG_OF_PERICENTER":269.465,"MEAN_ANOMALY":90.6078,"EPHEMERIS_TYPE":0,"CLASSIFICATION_TYPE":"U","NORAD_CAT_ID":58513,"ELEMENT_SET_NO":999,"REV_AT_EPOCH":12546,"BSTAR":0.00031234295,"MEAN_MOTION_DOT":8.137e-5,"MEAN_MOTION_DDOT":0},{"OBJECT_NAME":"FLOCK 4G-15","OBJECT_ID":"2025-009BX","EPOCH":"2026-03-09T17:13:37.807680","MEAN_MOTION":15.27266411,"ECCENTRICITY":0.00036988,"INCLINATION":97.4054,"RA_OF_ASC_NODE":151.1927,"ARG_OF_PERICENTER":316.8208,"MEAN_ANOMALY":43.274,"EPHEMERIS_TYPE":0,"CLASSIFICATION_TYPE":"U","NORAD_CAT_ID":62678,"ELEMENT_SET_NO":999,"REV_AT_EPOCH":12135,"BSTAR":0.00047574812,"MEAN_MOTION_DOT":0.00012647,"MEAN_MOTION_DDOT":0}]
